places = [{"placeName":"Park Henri Pittier","descrip":"Located in Aragua and Carabobo ","latitude":10.415433,"longitude":-67.655888},
{"placeName":"Canaima","descrip":"Guayana Shield. Located in Bolivar State","latitude":5.804,"longitude":-61.979},
{"placeName":"Sierra Nevada ","descrip":"Located in Mérida and Barinas State ","latitude":8.53,"longitude":-70.912},
{"placeName":"Sierra de la Culata","descrip":"Located in Merida and Trujillo","latitude":8.909,"longitude":-70.993},
{"placeName":"Sierra de Perija","descrip":"Located in Zulia state","latitude":9.774,"longitude":-72.953},
{"placeName":"Refugio de Fauna Silvestre Ciénaga de los Olivitos ","descrip":"Located in Zulia state","latitude":10.922745,"longitude":-71.381},
{"placeName":"Médanos de Coro","descrip":"Located in Falcón State","latitude":11.59857,"longitude":-69.721648},
{"placeName":"Cerro de Santa Ana","descrip":"Located in Falcón State","latitude":11.820234,"longitude":-69.946137},
{"placeName":"El Avila National Park","descrip":"Located in Miranda State","latitude":10.569829,"longitude":-66.691175},
{"placeName":"Archipiélago de los Roques National Park","descrip":"Island","latitude":11.863817,"longitude":-66.746952},
{"placeName":"Isla de Mono, National Park Mochima","descrip":"Island","latitude":10.264444,"longitude":-64.546389},
{"placeName":"Península de Paria National Park","descrip":"Located in Sucre State","latitude":10.698606,"longitude":-62.431118},
{"placeName":"Morrocoy National Park","descrip":"Located in Falcón State","latitude":10.857411,"longitude":-68.255372},
{"placeName":"Delta del Orinoco National Park","descrip":"Located in Delta Amacuro state","latitude":9.433633,"longitude":-61.372437},
{"placeName":"Guatopo National Park","descrip":"Located in Miranda State","latitude":10.103665,"longitude":-66.527054},
{"placeName":"Cueva del Guacharo National Park","descrip":"Located in Monagas state","latitude":10.199737,"longitude":-63.636714},
{"placeName":"Laguna de Tacarigua","descrip":"Located in Miranda State","latitude":10.273938,"longitude":-65.833162},
{"placeName":"Yurubi National Park","descrip":"Located in Yaracuy State","latitude":10.458416,"longitude":-68.731234},
{"placeName":"Yacambú National Park","descrip":"Located in Lara State","latitude":9.657777,"longitude":-69.689123},
{"placeName":"Jaua-Sarisariñama National Park","descrip":"Located in Bolivar State","latitude":4.74974,"longitude":-64.4006}]
